{
    "week": 289,
    "satellites": [
        {
            "Name": "GSAT0208 (GALILEO 11)",
            "Line1": "1 41175U 15079B   24297.42402276  .00000045  00000+0  00000+0 0  9998",
            "Line2": "2 41175  55.4825 117.7873 0001753  13.9522 346.0892  1.70474099 55093",
            "SatelliteNumber": "41175",
            "Classification": "U",
            "LaunchYear": "15",
            "LaunchNumber": "079",
            "PieceOfLaunch": "B",
            "EpochYear": "24",
            "EpochDay": 297.42402276,
            "FirstDerivativeMeanMotion": 4.5e-07,
            "SecondDerivativeMeanMotion": "00000+0",
            "BSTAR": "00000+0",
            "SetNumber": "999",
            "Inclination": 55.4825,
            "RAAN": 117.7873,
            "Eccentricity": 0.0001753,
            "ArgumentOfPerigee": 13.9522,
            "MeanAnomaly": 346.0892,
            "MeanMotion": 1.70474099,
            "RevolutionNumber": "5509"
        },
        {
            "Name": "GSAT0211 (GALILEO 14)",
            "Line1": "1 41549U 16030A   24292.26747501 -.00000008  00000+0  00000+0 0  9991",
            "Line2": "2 41549  55.3142 238.3896 0003544 334.2332  25.7170  1.70472936 52301",
            "SatelliteNumber": "41549",
            "Classification": "U",
            "LaunchYear": "16",
            "LaunchNumber": "030",
            "PieceOfLaunch": "A",
            "EpochYear": "24",
            "EpochDay": 292.26747501,
            "FirstDerivativeMeanMotion": -8e-08,
            "SecondDerivativeMeanMotion": "00000+0",
            "BSTAR": "00000+0",
            "SetNumber": "999",
            "Inclination": 55.3142,
            "RAAN": 238.3896,
            "Eccentricity": 0.0003544,
            "ArgumentOfPerigee": 334.2332,
            "MeanAnomaly": 25.717,
            "MeanMotion": 1.70472936,
            "RevolutionNumber": "5230"
        },
        {
            "Name": "GSAT0210 (GALILEO 13)",
            "Line1": "1 41550U 16030B   24296.04510183 -.00000012  00000+0  00000+0 0  9992",
            "Line2": "2 41550  55.3115 238.2843 0002781 247.7972 112.1604  1.70473437 52382",
            "SatelliteNumber": "41550",
            "Classification": "U",
            "LaunchYear": "16",
            "LaunchNumber": "030",
            "PieceOfLaunch": "B",
            "EpochYear": "24",
            "EpochDay": 296.04510183,
            "FirstDerivativeMeanMotion": -1.2e-07,
            "SecondDerivativeMeanMotion": "00000+0",
            "BSTAR": "00000+0",
            "SetNumber": "999",
            "Inclination": 55.3115,
            "RAAN": 238.2843,
            "Eccentricity": 0.0002781,
            "ArgumentOfPerigee": 247.7972,
            "MeanAnomaly": 112.1604,
            "MeanMotion": 1.70473437,
            "RevolutionNumber": "5238"
        },
        {
            "Name": "GSAT0207 (GALILEO 15)",
            "Line1": "1 41859U 16069A   24293.97823475  .00000043  00000+0  00000+0 0  9999",
            "Line2": "2 41859  55.1480 117.8554 0001796 326.5924  33.4401  1.70474112 49080",
            "SatelliteNumber": "41859",
            "Classification": "U",
            "LaunchYear": "16",
            "LaunchNumber": "069",
            "PieceOfLaunch": "A",
            "EpochYear": "24",
            "EpochDay": 293.97823475,
            "FirstDerivativeMeanMotion": 4.3e-07,
            "SecondDerivativeMeanMotion": "00000+0",
            "BSTAR": "00000+0",
            "SetNumber": "999",
            "Inclination": 55.148,
            "RAAN": 117.8554,
            "Eccentricity": 0.0001796,
            "ArgumentOfPerigee": 326.5924,
            "MeanAnomaly": 33.4401,
            "MeanMotion": 1.70474112,
            "RevolutionNumber": "4908"
        },
        {
            "Name": "GSAT0212 (GALILEO 16)",
            "Line1": "1 41860U 16069B   24292.07267347  .00000058  00000+0  00000+0 0  9997",
            "Line2": "2 41860  55.1447 117.9044 0002232  35.2044 324.8699  1.70474275 49304",
            "SatelliteNumber": "41860",
            "Classification": "U",
            "LaunchYear": "16",
            "LaunchNumber": "069",
            "PieceOfLaunch": "B",
            "EpochYear": "24",
            "EpochDay": 292.07267347,
            "FirstDerivativeMeanMotion": 5.8e-07,
            "SecondDerivativeMeanMotion": "00000+0",
            "BSTAR": "00000+0",
            "SetNumber": "999",
            "Inclination": 55.1447,
            "RAAN": 117.9044,
            "Eccentricity": 0.0002232,
            "ArgumentOfPerigee": 35.2044,
            "MeanAnomaly": 324.8699,
            "MeanMotion": 1.70474275,
            "RevolutionNumber": "4930"
        },
        {
            "Name": "GSAT0213 (GALILEO 17)",
            "Line1": "1 41861U 16069C   24296.54706279  .00000040  00000+0  00000+0 0  9997",
            "Line2": "2 41861  55.1495 117.7873 0001626 273.9779  86.0391  1.70474699 49247",
            "SatelliteNumber": "41861",
            "Classification": "U",
            "LaunchYear": "16",
            "LaunchNumber": "069",
            "PieceOfLaunch": "C",
            "EpochYear": "24",
            "EpochDay": 296.54706279,
            "FirstDerivativeMeanMotion": 4e-07,
            "SecondDerivativeMeanMotion": "00000+0",
            "BSTAR": "00000+0",
            "SetNumber": "999",
            "Inclination": 55.1495,
            "RAAN": 117.7873,
            "Eccentricity": 0.0001626,
            "ArgumentOfPerigee": 273.9779,
            "MeanAnomaly": 86.0391,
            "MeanMotion": 1.70474699,
            "RevolutionNumber": "4924"
        },
        {
            "Name": "GSAT0214 (GALILEO 18)",
            "Line1": "1 41862U 16069D   24296.10585818  .00000039  00000+0  00000+0 0  9992",
            "Line2": "2 41862  55.1473 117.7929 0000704 279.2188  80.8090  1.70474430 49369",
            "SatelliteNumber": "41862",
            "Classification": "U",
            "LaunchYear": "16",
            "LaunchNumber": "069",
            "PieceOfLaunch": "D",
            "EpochYear": "24",
            "EpochDay": 296.10585818,
            "FirstDerivativeMeanMotion": 3.9e-07,
            "SecondDerivativeMeanMotion": "00000+0",
            "BSTAR": "00000+0",
            "SetNumber": "999",
            "Inclination": 55.1473,
            "RAAN": 117.7929,
            "Eccentricity": 7.04e-05,
            "ArgumentOfPerigee": 279.2188,
            "MeanAnomaly": 80.809,
            "MeanMotion": 1.7047443,
            "RevolutionNumber": "4936"
        },
        {
            "Name": "GSAT0215 (GALILEO 19)",
            "Line1": "1 43055U 17079A   24297.18187630 -.00000020  00000+0  00000+0 0  9990",
            "Line2": "2 43055  55.2889 238.0748 0002415 285.4925  74.4695  1.70473721 42727",
            "SatelliteNumber": "43055",
            "Classification": "U",
            "LaunchYear": "17",
            "LaunchNumber": "079",
            "PieceOfLaunch": "A",
            "EpochYear": "24",
            "EpochDay": 297.1818763,
            "FirstDerivativeMeanMotion": -2e-07,
            "SecondDerivativeMeanMotion": "00000+0",
            "BSTAR": "00000+0",
            "SetNumber": "999",
            "Inclination": 55.2889,
            "RAAN": 238.0748,
            "Eccentricity": 0.0002415,
            "ArgumentOfPerigee": 285.4925,
            "MeanAnomaly": 74.4695,
            "MeanMotion": 1.70473721,
            "RevolutionNumber": "4272"
        },
        {
            "Name": "GSAT0216 (GALILEO 20)",
            "Line1": "1 43056U 17079B   24296.30030826 -.00000014  00000+0  00000+0 0  9991",
            "Line2": "2 43056  55.2898 238.0989 0003959 288.5654  71.3794  1.70473834 42723",
            "SatelliteNumber": "43056",
            "Classification": "U",
            "LaunchYear": "17",
            "LaunchNumber": "079",
            "PieceOfLaunch": "B",
            "EpochYear": "24",
            "EpochDay": 296.30030826,
            "FirstDerivativeMeanMotion": -1.4e-07,
            "SecondDerivativeMeanMotion": "00000+0",
            "BSTAR": "00000+0",
            "SetNumber": "999",
            "Inclination": 55.2898,
            "RAAN": 238.0989,
            "Eccentricity": 0.0003959,
            "ArgumentOfPerigee": 288.5654,
            "MeanAnomaly": 71.3794,
            "MeanMotion": 1.70473834,
            "RevolutionNumber": "4272"
        },
        {
            "Name": "GSAT0217 (GALILEO 21)",
            "Line1": "1 43057U 17079C   24296.52082907 -.00000015  00000+0  00000+0 0  9994",
            "Line2": "2 43057  55.2875 238.0914 0003537 305.1951  54.7599  1.70473783 42715",
            "SatelliteNumber": "43057",
            "Classification": "U",
            "LaunchYear": "17",
            "LaunchNumber": "079",
            "PieceOfLaunch": "C",
            "EpochYear": "24",
            "EpochDay": 296.52082907,
            "FirstDerivativeMeanMotion": -1.5e-07,
            "SecondDerivativeMeanMotion": "00000+0",
            "BSTAR": "00000+0",
            "SetNumber": "999",
            "Inclination": 55.2875,
            "RAAN": 238.0914,
            "Eccentricity": 0.0003537,
            "ArgumentOfPerigee": 305.1951,
            "MeanAnomaly": 54.7599,
            "MeanMotion": 1.70473783,
            "RevolutionNumber": "4271"
        }
    ]
}